ONEWEB-0628             
1 55169U 23004AF  26189.90391032  .00000140  00000+0  35356-3 0  9997
2 55169  87.8957 346.3352 0001700  71.5215 288.6099 13.12441381170881
ONEWEB-0629             
1 55170U 23004AG  26190.74248049  .00000016  00000+0  89809-5 0  9998
2 55170  87.9134   1.3824 0001574  86.8332 273.2979 13.17649294170550
ONEWEB-0631             
1 55171U 23004AH  26190.63681053  .00000083  00000+0  17723-3 0  9991
2 55171  87.9192 330.9711 0002369  92.5952 267.5452 13.18686966172637
ONEWEB-0709             
1 55172U 23004AJ  26189.94892363 -.00000069  00000+0 -22949-3 0  9994
2 55172  87.8875  16.7452 0002525 103.5511 256.5899 13.11418523168727
ONEWEB-0710             
1 55173U 23004AK  26190.75681735  .00000033  00000+0  53045-4 0  9996
2 55173  87.9136   1.3750 0001904  87.2591 272.8758 13.17647297170553
ONEWEB-0711             
1 55174U 23004AL  26189.46231604 -.00000345  00000+0 -10087-2 0  9994
2 55174  87.8881  16.8300 0002135  69.7914 290.3443 13.11415014168628
ONEWEB-0713             
1 55175U 23004AM  26189.93874845 -.00000439  00000+0 -12759-2 0  9999
2 55175  87.8886  16.7373 0002004  78.7108 281.4246 13.11416869168679
ONEWEB-0715             
1 55176U 23004AN  26190.54403378 -.00000554  00000+0 -15992-2 0  9998
2 55176  87.8879  16.6162 0002466  94.7951 265.3458 13.11415812168799
ONEWEB-0716             
1 55177U 23004AP  26190.75006584  .00000111  00000+0  25401-3 0  9994
2 55177  87.9134   1.3790 0001722  97.7506 262.3821 13.17647365170550
ONEWEB-0717             
1 55178U 23004AQ  26190.73319816 -.00000037  00000+0 -12727-3 0  9994
2 55178  87.9145   1.3723 0002200  78.5045 281.6333 13.17649725170606
ONEWEB-0719             
1 55179U 23004AR  26189.90802159 -.00000017  00000+0 -77015-4 0  9999
2 55179  87.9146   1.5167 0001677  93.0750 267.0573 13.17650200170440
ONEWEB-0530             
1 55796U 23029A   26189.68061353 -.00000044  00000+0 -14023-3 0  9998
2 55796  87.9178 270.1846 0001950  85.9494 274.1862 13.20772718163981
ONEWEB-0534             
1 55797U 23029B   26190.19911532 -.00000026  00000+0 -95737-4 0  9992
2 55797  87.9182 270.0821 0001985 101.7483 258.3874 13.20772497164052
ONEWEB-0556             
1 55798U 23029C   26190.20580591 -.00002393  00000+0 -59177-2 0  9997
2 55798  87.9176 270.0786 0001415 100.6192 259.5101 13.20788951164057
ONEWEB-0562             
1 55799U 23029D   26190.19239138  .00000074  00000+0  14906-3 0  9998
2 55799  87.9176 270.0639 0001505  80.5210 279.6094 13.20772306164053
ONEWEB-0563             
1 55800U 23029E   26190.18732686  .00000081  00000+0  16809-3 0  9998
2 55800  87.9177 270.0948 0002056 106.9738 253.1621 13.20773805164047
