{"fetched_at":"2026-07-10T07:58:41.598Z","source":"https://celestrak.org/NORAD/elements/gp.php?GROUP=oneweb&FORMAT=JSON","constellation":"oneweb","records":[{"OBJECT_NAME":"ONEWEB-0628","OBJECT_ID":"2023-004AF","EPOCH":"2026-07-08T21:41:37.851648","CLASSIFICATION_TYPE":"U","MEAN_MOTION":13.12441381,"ECCENTRICITY":0.00017003,"INCLINATION":87.8957,"RA_OF_ASC_NODE":346.3352,"ARG_OF_PERICENTER":71.5215,"MEAN_ANOMALY":288.6099,"EPHEMERIS_TYPE":0,"NORAD_CAT_ID":55169,"ELEMENT_SET_NO":999,"REV_AT_EPOCH":17088,"BSTAR":0.0003535648,"MEAN_MOTION_DOT":0.0000014,"MEAN_MOTION_DDOT":0},{"OBJECT_NAME":"ONEWEB-0629","OBJECT_ID":"2023-004AG","EPOCH":"2026-07-09T17:49:10.314336","CLASSIFICATION_TYPE":"U","MEAN_MOTION":13.17649294,"ECCENTRICITY":0.0001574,"INCLINATION":87.9134,"RA_OF_ASC_NODE":1.3824,"ARG_OF_PERICENTER":86.8332,"MEAN_ANOMALY":273.2979,"EPHEMERIS_TYPE":0,"NORAD_CAT_ID":55170,"ELEMENT_SET_NO":999,"REV_AT_EPOCH":17055,"BSTAR":0.0000089809,"MEAN_MOTION_DOT":1.6e-7,"MEAN_MOTION_DDOT":0},{"OBJECT_NAME":"ONEWEB-0631","OBJECT_ID":"2023-004AH","EPOCH":"2026-07-09T15:17:00.429792","CLASSIFICATION_TYPE":"U","MEAN_MOTION":13.18686966,"ECCENTRICITY":0.0002369,"INCLINATION":87.9192,"RA_OF_ASC_NODE":330.9711,"ARG_OF_PERICENTER":92.5952,"MEAN_ANOMALY":267.5452,"EPHEMERIS_TYPE":0,"NORAD_CAT_ID":55171,"ELEMENT_SET_NO":999,"REV_AT_EPOCH":17263,"BSTAR":0.00017723,"MEAN_MOTION_DOT":8.3e-7,"MEAN_MOTION_DDOT":0},{"OBJECT_NAME":"ONEWEB-0709","OBJECT_ID":"2023-004AJ","EPOCH":"2026-07-08T22:46:27.001632","CLASSIFICATION_TYPE":"U","MEAN_MOTION":13.11418523,"ECCENTRICITY":0.00025256,"INCLINATION":87.8875,"RA_OF_ASC_NODE":16.7452,"ARG_OF_PERICENTER":103.5511,"MEAN_ANOMALY":256.5899,"EPHEMERIS_TYPE":0,"NORAD_CAT_ID":55172,"ELEMENT_SET_NO":999,"REV_AT_EPOCH":16872,"BSTAR":-0.00022948994,"MEAN_MOTION_DOT":-6.9e-7,"MEAN_MOTION_DDOT":0},{"OBJECT_NAME":"ONEWEB-0710","OBJECT_ID":"2023-004AK","EPOCH":"2026-07-09T18:09:49.019040","CLASSIFICATION_TYPE":"U","MEAN_MOTION":13.17647297,"ECCENTRICITY":0.0001904,"INCLINATION":87.9136,"RA_OF_ASC_NODE":1.375,"ARG_OF_PERICENTER":87.2591,"MEAN_ANOMALY":272.8758,"EPHEMERIS_TYPE":0,"NORAD_CAT_ID":55173,"ELEMENT_SET_NO":999,"REV_AT_EPOCH":17055,"BSTAR":0.000053045,"MEAN_MOTION_DOT":3.3e-7,"MEAN_MOTION_DDOT":0},{"OBJECT_NAME":"ONEWEB-0711","OBJECT_ID":"2023-004AL","EPOCH":"2026-07-08T11:05:44.105856","CLASSIFICATION_TYPE":"U","MEAN_MOTION":13.11415014,"ECCENTRICITY":0.0002135,"INCLINATION":87.8881,"RA_OF_ASC_NODE":16.83,"ARG_OF_PERICENTER":69.7914,"MEAN_ANOMALY":290.3443,"EPHEMERIS_TYPE":0,"NORAD_CAT_ID":55174,"ELEMENT_SET_NO":999,"REV_AT_EPOCH":16862,"BSTAR":-0.0010086751,"MEAN_MOTION_DOT":-0.00000345,"MEAN_MOTION_DDOT":0},{"OBJECT_NAME":"ONEWEB-0713","OBJECT_ID":"2023-004AM","EPOCH":"2026-07-08T22:31:47.866080","CLASSIFICATION_TYPE":"U","MEAN_MOTION":13.11416869,"ECCENTRICITY":0.00020048,"INCLINATION":87.8886,"RA_OF_ASC_NODE":16.7373,"ARG_OF_PERICENTER":78.7108,"MEAN_ANOMALY":281.4246,"EPHEMERIS_TYPE":0,"NORAD_CAT_ID":55175,"ELEMENT_SET_NO":999,"REV_AT_EPOCH":16867,"BSTAR":-0.001275868,"MEAN_MOTION_DOT":-0.00000439,"MEAN_MOTION_DDOT":0},{"OBJECT_NAME":"ONEWEB-0715","OBJECT_ID":"2023-004AN","EPOCH":"2026-07-09T13:03:24.518592","CLASSIFICATION_TYPE":"U","MEAN_MOTION":13.11415812,"ECCENTRICITY":0.0002466,"INCLINATION":87.8879,"RA_OF_ASC_NODE":16.6162,"ARG_OF_PERICENTER":94.7951,"MEAN_ANOMALY":265.3458,"EPHEMERIS_TYPE":0,"NORAD_CAT_ID":55176,"ELEMENT_SET_NO":999,"REV_AT_EPOCH":16879,"BSTAR":-0.0015992,"MEAN_MOTION_DOT":-0.00000554,"MEAN_MOTION_DDOT":0},{"OBJECT_NAME":"ONEWEB-0716","OBJECT_ID":"2023-004AP","EPOCH":"2026-07-09T18:00:05.688576","CLASSIFICATION_TYPE":"U","MEAN_MOTION":13.17647365,"ECCENTRICITY":0.0001722,"INCLINATION":87.9134,"RA_OF_ASC_NODE":1.379,"ARG_OF_PERICENTER":97.7506,"MEAN_ANOMALY":262.3821,"EPHEMERIS_TYPE":0,"NORAD_CAT_ID":55177,"ELEMENT_SET_NO":999,"REV_AT_EPOCH":17055,"BSTAR":0.00025401,"MEAN_MOTION_DOT":0.00000111,"MEAN_MOTION_DDOT":0},{"OBJECT_NAME":"ONEWEB-0717","OBJECT_ID":"2023-004AQ","EPOCH":"2026-07-09T17:35:48.321024","CLASSIFICATION_TYPE":"U","MEAN_MOTION":13.17649725,"ECCENTRICITY":0.00022,"INCLINATION":87.9145,"RA_OF_ASC_NODE":1.3723,"ARG_OF_PERICENTER":78.5045,"MEAN_ANOMALY":281.6333,"EPHEMERIS_TYPE":0,"NORAD_CAT_ID":55178,"ELEMENT_SET_NO":999,"REV_AT_EPOCH":17060,"BSTAR":-0.00012727,"MEAN_MOTION_DOT":-3.7e-7,"MEAN_MOTION_DDOT":0},{"OBJECT_NAME":"ONEWEB-0719","OBJECT_ID":"2023-004AR","EPOCH":"2026-07-08T21:47:33.065376","CLASSIFICATION_TYPE":"U","MEAN_MOTION":13.176502,"ECCENTRICITY":0.00016775,"INCLINATION":87.9146,"RA_OF_ASC_NODE":1.5167,"ARG_OF_PERICENTER":93.075,"MEAN_ANOMALY":267.0573,"EPHEMERIS_TYPE":0,"NORAD_CAT_ID":55179,"ELEMENT_SET_NO":999,"REV_AT_EPOCH":17044,"BSTAR":-0.000077015469,"MEAN_MOTION_DOT":-1.7e-7,"MEAN_MOTION_DDOT":0},{"OBJECT_NAME":"ONEWEB-0530","OBJECT_ID":"2023-029A","EPOCH":"2026-07-08T16:20:05.008992","CLASSIFICATION_TYPE":"U","MEAN_MOTION":13.20772718,"ECCENTRICITY":0.00019505,"INCLINATION":87.9178,"RA_OF_ASC_NODE":270.1846,"ARG_OF_PERICENTER":85.9494,"MEAN_ANOMALY":274.1862,"EPHEMERIS_TYPE":0,"NORAD_CAT_ID":55796,"ELEMENT_SET_NO":999,"REV_AT_EPOCH":16398,"BSTAR":-0.00014022522,"MEAN_MOTION_DOT":-4.4e-7,"MEAN_MOTION_DDOT":0},{"OBJECT_NAME":"ONEWEB-0534","OBJECT_ID":"2023-029B","EPOCH":"2026-07-09T04:46:43.563648","CLASSIFICATION_TYPE":"U","MEAN_MOTION":13.20772497,"ECCENTRICITY":0.0001985,"INCLINATION":87.9182,"RA_OF_ASC_NODE":270.0821,"ARG_OF_PERICENTER":101.7483,"MEAN_ANOMALY":258.3874,"EPHEMERIS_TYPE":0,"NORAD_CAT_ID":55797,"ELEMENT_SET_NO":999,"REV_AT_EPOCH":16405,"BSTAR":-0.000095737486,"MEAN_MOTION_DOT":-2.6e-7,"MEAN_MOTION_DDOT":0},{"OBJECT_NAME":"ONEWEB-0556","OBJECT_ID":"2023-029C","EPOCH":"2026-07-09T04:56:21.630624","CLASSIFICATION_TYPE":"U","MEAN_MOTION":13.20788951,"ECCENTRICITY":0.00014158,"INCLINATION":87.9176,"RA_OF_ASC_NODE":270.0786,"ARG_OF_PERICENTER":100.6192,"MEAN_ANOMALY":259.5101,"EPHEMERIS_TYPE":0,"NORAD_CAT_ID":55798,"ELEMENT_SET_NO":999,"REV_AT_EPOCH":16405,"BSTAR":-0.0059176599,"MEAN_MOTION_DOT":-0.00002393,"MEAN_MOTION_DDOT":0},{"OBJECT_NAME":"ONEWEB-0562","OBJECT_ID":"2023-029D","EPOCH":"2026-07-09T04:37:02.615232","CLASSIFICATION_TYPE":"U","MEAN_MOTION":13.20772306,"ECCENTRICITY":0.00015051,"INCLINATION":87.9176,"RA_OF_ASC_NODE":270.0639,"ARG_OF_PERICENTER":80.521,"MEAN_ANOMALY":279.6094,"EPHEMERIS_TYPE":0,"NORAD_CAT_ID":55799,"ELEMENT_SET_NO":999,"REV_AT_EPOCH":16405,"BSTAR":0.00014905561,"MEAN_MOTION_DOT":7.4e-7,"MEAN_MOTION_DDOT":0},{"OBJECT_NAME":"ONEWEB-0563","OBJECT_ID":"2023-029E","EPOCH":"2026-07-09T04:29:45.040704","CLASSIFICATION_TYPE":"U","MEAN_MOTION":13.20773805,"ECCENTRICITY":0.0002056,"INCLINATION":87.9177,"RA_OF_ASC_NODE":270.0948,"ARG_OF_PERICENTER":106.9738,"MEAN_ANOMALY":253.1621,"EPHEMERIS_TYPE":0,"NORAD_CAT_ID":55800,"ELEMENT_SET_NO":999,"REV_AT_EPOCH":16404,"BSTAR":0.00016809498,"MEAN_MOTION_DOT":8.1e-7,"MEAN_MOTION_DDOT":0}]}
